NORAD_CAT_ID,OBJECT_NAME,OBJECT_TYPE,EPOCH,MEAN_MOTION,ECCENTRICITY,INCLINATION,RA_OF_ASC_NODE,ARG_OF_PERICENTER,MEAN_ANOMALY,BSTAR,MEAN_MOTION_DOT,MEAN_MOTION_DDOT,TLE_LINE0,TLE_LINE1,TLE_LINE2,SEMIMAJOR_AXIS,PERIOD,APOGEE,PERIGEE,DECAYED
55931.0,STARLINK-5897,PAYLOAD,2023-05-25 14:00:01,14.98326209,0.0003238,70.0009,353.8067,266.5425,295.3087,0.00088289,0.00010456,0.0,0 STARLINK-5897,1 55931U 23037T   23145.58334491  .00010456  00000-0  88289-3 0  9994,2 55931  70.0009 353.8067 0003238 266.5425 295.3087 14.98326209  1301,6950.205,96.107,574.32,569.819,0.0
55931.0,STARLINK-5897,PAYLOAD,2023-05-25 22:00:00,14.98311757,0.0003239,70.0008,352.9662,273.0947,286.2462,0.0022362,0.00026678,0.0,0 STARLINK-5897,1 55931U 23037T   23145.91667824  .00026678  00000-0  22362-2 0  9992,2 55931  70.0008 352.9662 0003239 273.0947 286.2462 14.98311757 11235,6950.249,96.108,574.365,569.863,0.0
55931.0,STARLINK-5897,PAYLOAD,2023-05-26 00:00:02,14.98309848,0.0003227,70.0008,352.756,273.7345,15.037,0.0033608,0.00040218,0.0,0 STARLINK-5897,1 55931U 23037T   23146.00002315  .00040218  00000-0  33608-2 0  9992,2 55931  70.0008 352.7560 0003227 273.7345  15.0370 14.98309848  1307,6950.255,96.108,574.363,569.877,0.0
55931.0,STARLINK-5897,PAYLOAD,2023-05-26 14:00:01,14.98343319,0.0003191,70.0009,351.2853,266.4939,287.8,0.00057798,6.813e-05,0.0,0 STARLINK-5897,1 55931U 23037T   23146.58334491  .00006813  00000-0  57798-3 0  9998,2 55931  70.0009 351.2853 0003191 266.4939 287.8000 14.98343319  1305,6950.152,96.106,574.234,569.799,0.0
55931.0,STARLINK-5897,PAYLOAD,2023-05-26 22:00:01,14.98329129,0.0003219,70.0009,350.4447,273.5113,278.3468,-5.3074e-05,-7.26e-06,0.0,0 STARLINK-5897,1 55931U 23037T   23146.91668981 -.00000726  00000-0 -53074-4 0  9992,2 55931  70.0009 350.4447 0003219 273.5113 278.3468 14.98329129 11384,6950.196,96.107,574.298,569.823,0.0
55931.0,STARLINK-5897,PAYLOAD,2023-05-27 22:00:00,14.98318637,0.0003241,70.0009,347.9232,272.8518,271.3926,0.0013396,0.00015923,0.0,0 STARLINK-5897,1 55931U 23037T   23147.91667824  .00015923  00000-0  13396-2 0  9992,2 55931  70.0009 347.9232 0003241 272.8518 271.3926 14.98318637  1308,6950.228,96.108,574.346,569.84,0.0
55931.0,STARLINK-5897,PAYLOAD,2023-05-27 22:46:58,14.98326136,0.0003107,69.9991,347.842,270.6097,89.4706,2.8921e-05,2.52e-06,0.0,0 STARLINK-5897,1 55931U 23037T   23147.94928858  .00000252  00000-0  28921-4 0  9993,2 55931  69.9991 347.8420 0003107 270.6097  89.4706 14.98326136 11535,6950.205,96.107,574.229,569.91,0.0
55931.0,STARLINK-5897,PAYLOAD,2023-05-28 19:36:42,14.98333663,0.0003101,69.999,345.6535,269.6526,90.4278,1.0499e-05,3.2e-07,0.0,0 STARLINK-5897,1 55931U 23037T   23148.81716417  .00000032  00000-0  10499-4 0  9993,2 55931  69.9990 345.6535 0003101 269.6526  90.4278 14.98333663 11669,6950.182,96.107,574.202,569.891,0.0
55931.0,STARLINK-5897,PAYLOAD,2023-05-28 21:12:51,14.98332707,0.0003075,69.999,345.4848,269.3936,90.6871,1.923e-06,-7e-07,0.0,0 STARLINK-5897,1 55931U 23037T   23148.88392494 -.00000070  00000-0  19230-5 0  9991,2 55931  69.9990 345.4848 0003075 269.3936  90.6871 14.98332707 11339,6950.185,96.107,574.187,569.912,0.0
55931.0,STARLINK-5897,PAYLOAD,2023-05-29 14:50:20,14.98327673,0.0003135,69.9988,343.634,269.493,90.587,-5.5063e-06,-1.59e-06,0.0,0 STARLINK-5897,1 55931U 23037T   23149.61828768 -.00000159  00000-0 -55063-5 0  9994,2 55931  69.9988 343.6340 0003135 269.4930  90.5870 14.98327673 11441,6950.2,96.107,574.244,569.886,0.0
55931.0,STARLINK-5897,PAYLOAD,2023-05-29 16:26:28,14.98327389,0.0003126,69.9989,343.4654,269.1549,90.9252,-1.3149e-06,-1.09e-06,0.0,0 STARLINK-5897,1 55931U 23037T   23149.68504765 -.00000109  00000-0 -13149-5 0  9993,2 55931  69.9989 343.4654 0003126 269.1549  90.9252 14.98327389 11791,6950.201,96.107,574.239,569.893,0.0
55931.0,STARLINK-5897,PAYLOAD,2023-05-29 21:14:52,14.98328152,0.0003183,69.9989,342.9602,270.3324,89.747,-1.0012e-05,-2.12e-06,0.0,0 STARLINK-5897,1 55931U 23037T   23149.88532761 -.00000212  00000-0 -10012-4 0  9992,2 55931  69.9989 342.9602 0003183 270.3324  89.7470 14.98328152 11489,6950.199,96.107,574.276,569.851,0.0
55931.0,STARLINK-5897,PAYLOAD,2023-05-29 22:51:00,14.98329281,0.000325,69.9987,342.7914,271.3322,88.7464,-4.2098e-07,-9.8e-07,0.0,0 STARLINK-5897,1 55931U 23037T   23149.95208663 -.00000098  00000-0 -42098-6 0  9994,2 55931  69.9987 342.7914 0003250 271.3322  88.7464 14.98329281 11492,6950.195,96.107,574.319,569.801,0.0
55931.0,STARLINK-5897,PAYLOAD,2023-05-30 19:40:44,14.98334922,0.0003295,69.9983,340.6024,270.3383,89.7398,1.884e-05,1.32e-06,0.0,0 STARLINK-5897,1 55931U 23037T   23150.81996165  .00000132  00000-0  18840-4 0  9995,2 55931  69.9983 340.6024 0003295 270.3383  89.7398 14.98334922 11969,6950.178,96.107,574.333,569.753,0.0
55931.0,STARLINK-5897,PAYLOAD,2023-05-30 21:16:52,14.98336163,0.0003267,69.9984,340.4342,270.3994,89.679,2.3805e-05,1.91e-06,0.0,0 STARLINK-5897,1 55931U 23037T   23150.88672050  .00000191  00000-0  23805-4 0  9998,2 55931  69.9984 340.4342 0003267 270.3994  89.6790 14.98336163 11636,6950.174,96.107,574.309,569.768,0.0
55931.0,STARLINK-5897,PAYLOAD,2023-05-31 13:18:13,14.98325894,0.0003198,69.9987,338.7507,270.9383,89.141,-2.034e-05,-3.36e-06,0.0,0 STARLINK-5897,1 55931U 23037T   23151.55432755 -.00000336  00000-0 -20340-4 0  9993,2 55931  69.9987 338.7507 0003198 270.9383  89.1410 14.98325894 11737,6950.206,96.107,574.293,569.848,0.0
55931.0,STARLINK-5897,PAYLOAD,2023-05-31 18:06:38,14.98326672,0.0003191,69.9987,338.2457,270.9024,89.1769,-1.1121e-05,-2.26e-06,0.0,0 STARLINK-5897,1 55931U 23037T   23151.75460712 -.00000226  00000-0 -11121-4 0  9994,2 55931  69.9987 338.2457 0003191 270.9024  89.1769 14.98326672 12105,6950.203,96.107,574.286,569.85,0.0
55931.0,STARLINK-5897,PAYLOAD,2023-05-31 21:18:54,14.98328505,0.0003177,69.9987,337.909,270.9549,89.1246,8.634e-06,1e-07,0.0,0 STARLINK-5897,1 55931U 23037T   23151.88812547  .00000010  00000-0  86340-5 0  9990,2 55931  69.9987 337.9090 0003177 270.9549  89.1246 14.98328505 11780,6950.198,96.107,574.271,569.854,0.0
55931.0,STARLINK-5897,PAYLOAD,2023-06-01 05:19:34,14.98329813,0.0003167,69.9988,337.0674,270.7722,89.3074,1.5344e-06,-7.5e-07,0.0,0 STARLINK-5897,1 55931U 23037T   23152.22192477 -.00000075  00000-0  15344-5 0  9990,2 55931  69.9988 337.0674 0003167 270.7722  89.3074 14.98329813 11830,6950.193,96.107,574.26,569.857,0.0
55931.0,STARLINK-5897,PAYLOAD,2023-06-01 21:20:54,14.98335263,0.0003119,69.9989,335.3844,268.5297,91.5505,3.9724e-06,-4.6e-07,0.0,0 STARLINK-5897,1 55931U 23037T   23152.88951997 -.00000046  00000-0  39724-5 0  9998,2 55931  69.9989 335.3844 0003119 268.5297  91.5505 14.98335263 12279,6950.177,96.107,574.209,569.874,0.0
55931.0,STARLINK-5897,PAYLOAD,2023-06-02 13:22:15,14.98326182,0.0003051,69.9987,333.7005,273.0696,87.0114,-1.3241e-05,-2.51e-06,0.0,0 STARLINK-5897,1 55931U 23037T   23153.55712619 -.00000251  00000-0 -13241-4 0  9993,2 55931  69.9987 333.7005 0003051 273.0696  87.0114 14.98326182 12037,6950.205,96.107,574.19,569.949,0.0
55931.0,STARLINK-5897,PAYLOAD,2023-06-02 18:10:39,14.98327494,0.0003059,69.9988,333.1956,272.6267,87.4542,1.8542e-06,-7.1e-07,0.0,0 STARLINK-5897,1 55931U 23037T   23153.75740516 -.00000071  00000-0  18542-5 0  9991,2 55931  69.9988 333.1956 0003059 272.6267  87.4542 14.98327494 12401,6950.201,96.107,574.192,569.94,0.0
55931.0,STARLINK-5897,PAYLOAD,2023-06-02 21:22:56,14.98326037,0.0003096,69.9988,332.8592,272.0045,88.076,-1.4509e-05,-2.66e-06,0.0,0 STARLINK-5897,1 55931U 23037T   23153.89092668 -.00000266  00000-0 -14509-4 0  9999,2 55931  69.9988 332.8592 0003096 272.0045  88.0760 14.98326037 12087,6950.205,96.107,574.222,569.918,0.0
55931.0,STARLINK-5897,PAYLOAD,2023-06-03 13:24:16,14.98329945,0.0003137,69.9986,331.1759,272.4975,87.5825,-1.7503e-05,-3.02e-06,0.0,0 STARLINK-5897,1 55931U 23037T   23154.55852483 -.00000302  00000-0 -17503-4 0  9990,2 55931  69.9986 331.1759 0003137 272.4975  87.5825 14.98329945 12182,6950.193,96.107,574.238,569.878,0.0
55931.0,STARLINK-5897,PAYLOAD,2023-06-03 18:12:40,14.98331883,0.0003178,69.9985,330.6706,271.8468,88.2327,-1.425e-05,-2.63e-06,0.0,0 STARLINK-5897,1 55931U 23037T   23154.75880328 -.00000263  00000-0 -14250-4 0  9993,2 55931  69.9985 330.6706 0003178 271.8468  88.2327 14.98331883 12552,6950.187,96.107,574.261,569.843,0.0
55931.0,STARLINK-5897,PAYLOAD,2023-06-03 21:24:56,14.98331451,0.0003185,69.9985,330.3339,271.811,88.2684,-1.795e-05,-3.07e-06,0.0,0 STARLINK-5897,1 55931U 23037T   23154.89232351 -.00000307  00000-0 -17950-4 0  9994,2 55931  69.9985 330.3339 0003185 271.8110  88.2684 14.98331451 12235,6950.188,96.107,574.267,569.84,0.0
55931.0,STARLINK-5897,PAYLOAD,2023-06-04 13:26:17,14.98327986,0.0003215,69.9985,328.6502,271.518,88.561,5.2956e-05,5.39e-06,0.0,0 STARLINK-5897,1 55931U 23037T   23155.55992328  .00000539  00000-0  52956-4 0  9995,2 55931  69.9985 328.6502 0003215 271.5180  88.5610 14.98327986 12336,6950.199,96.107,574.299,569.83,0.0
55931.0,STARLINK-5897,PAYLOAD,2023-06-04 18:14:41,14.9832915,0.0003225,69.9986,328.1449,271.1697,88.9092,3.1354e-05,2.81e-06,0.0,0 STARLINK-5897,1 55931U 23037T   23155.76020322  .00000281  00000-0  31354-4 0  9997,2 55931  69.9986 328.1449 0003225 271.1697  88.9092 14.98329150 12706,6950.196,96.107,574.302,569.819,0.0
55931.0,STARLINK-5897,PAYLOAD,2023-06-04 21:26:57,14.9833244,0.0003213,69.9987,327.8082,271.1616,88.9175,6.4752e-05,6.8e-06,0.0,0 STARLINK-5897,1 55931U 23037T   23155.89372003  .00000680  00000-0  64752-4 0  9998,2 55931  69.9987 327.8082 0003213 271.1616  88.9175 14.98332440 12386,6950.185,96.107,574.283,569.817,0.0
55931.0,STARLINK-5897,PAYLOAD,2023-06-05 13:28:18,14.98329459,0.0003171,69.9988,326.1246,270.8595,89.2201,-2.3122e-06,-1.21e-06,0.0,0 STARLINK-5897,1 55931U 23037T   23156.56132342 -.00000121  00000-0 -23122-5 0  9992,2 55931  69.9988 326.1246 0003171 270.8595  89.2201 14.98329459 12487,6950.195,96.107,574.263,569.856,0.0
